0 DELTA 1 DEB
1 03975U 68069F   13282.89451191 -.00000013  00000-0  21336-3 0  9181
2 03975 102.0895 278.1527 0043710 057.8434 005.0561 12.53445300 67916
0 DELTA 1 DEB
1 03975U 68069F   13288.81363549 -.00000043  00000-0  22847-4 0  9203
2 03975 102.0896 284.1780 0043675 046.6723 074.4648 12.53445989 68653
0 DELTA 1 DEB
1 03975U 68069F   13290.95688142 -.00000050  00000-0 -18332-4 0  9214
2 03975 102.0902 286.3598 0043666 042.5850 025.6759 12.53446017 68922
0 DELTA 1 DEB
1 03975U 68069F   13294.94489690 -.00000028  00000-0  11801-3 0  9222
2 03975 102.0907 290.4194 0043640 035.0390 021.1921 12.53445845 69429
